KUIPER-00008            
1 63724U 25088A   26024.91365581  .00011624  00000+0  96391-3 0  9991
2 63724  51.8900 286.5220 0007517 314.4686  45.5670 14.99180153 41490
KUIPER-00009            
1 63725U 25088B   26025.02374753  .00009231  00000+0  12359-2 0  9998
2 63725  51.9028 299.7222 0009808 318.7991  41.2230 14.79991194 41311
KUIPER-00010            
1 63726U 25088C   26025.42097684  .00006870  00000+0  92993-3 0  9997
2 63726  51.9010 274.4230 0000556  78.2481 281.8544 14.79898506 41329
KUIPER-00011            
1 63727U 25088D   26025.44653730  .00009115  00000+0  12214-2 0  9992
2 63727  51.9029 281.8796 0008727 351.5966   8.4849 14.79972622 41358
KUIPER-00012            
1 63728U 25088E   26025.64612797  .00005392  00000+0  79104-3 0  9998
2 63728  51.9009 265.3689 0008144 350.4083   9.6721 14.76816800 41552
KUIPER-00013            
1 63729U 25088F   26025.49518027  .00009366  00000+0  12582-2 0  9994
2 63729  51.9015 299.0976 0003114 252.1729 107.8893 14.79855695 41177
KUIPER-00014            
1 63730U 25088G   26024.47930518  .00006498  00000+0  87655-3 0  9993
2 63730  51.9018 304.5473 0004726 330.8634  29.2064 14.80122629 40829
KUIPER-00015            
1 63731U 25088H   26025.06324603  .00011192  00000+0  14087-2 0  9997
2 63731  51.9004 312.2822 0008985 292.4172  67.5839 14.82402794 41226
